[{"OBJECT_NAME":"GAOFEN-2","OBJECT_ID":"2014-049A","EPOCH":"2026-03-09T23:35:46.910976","MEAN_MOTION":14.80770566,"ECCENTRICITY":0.00070783,"INCLINATION":98.0218,"RA_OF_ASC_NODE":133.2442,"ARG_OF_PERICENTER":184.3502,"MEAN_ANOMALY":175.765,"EPHEMERIS_TYPE":0,"CLASSIFICATION_TYPE":"U","NORAD_CAT_ID":40118,"ELEMENT_SET_NO":999,"REV_AT_EPOCH":62455,"BSTAR":6.8905409e-5,"MEAN_MOTION_DOT":4.77e-6,"MEAN_MOTION_DDOT":0},{"OBJECT_NAME":"USA 57","OBJECT_ID":"1990-031B","EPOCH":"2026-03-09T23:09:57.966336","MEAN_MOTION":14.73121997,"ECCENTRICITY":0.00684729,"INCLINATION":89.8421,"RA_OF_ASC_NODE":266.6849,"ARG_OF_PERICENTER":50.3395,"MEAN_ANOMALY":310.3837,"EPHEMERIS_TYPE":0,"CLASSIFICATION_TYPE":"U","NORAD_CAT_ID":20561,"ELEMENT_SET_NO":999,"REV_AT_EPOCH":10057,"BSTAR":0.00011702227,"MEAN_MOTION_DOT":7.99e-6,"MEAN_MOTION_DDOT":0}]
